SatCatId,ObjectName,LaunchYear,OrbitalPeriod,LaunchMass,StatusCode,Inclination,Status,UcsData,OrbitClassEstimated,LaunchSiteCountry,Owner,UseType,Purpose,LaunchVehicleClass,TLE1,TLE2,MeanMotion,Eccentricity,OrbitClass
41891,CYGFM03,2016,94.34,29.0,X,34.95,Active,1,LEO,Eastern Range Airspace,USA,Government,Earth Observation,Pegasus,1 41891U 16078H   24110.58892813  .00018795  00000+0  70190-3 0  9996,2 41891  34.9526 296.8941 0011043  27.6799 332.4502 15.26446579407203,15.26446579,0.0011043,LEO
41893,ECHOSTAR 19,2016,1436.13,6764.0,+,0.02,Active,1,GSO,USA,USA,Commercial,Communications,Atlas,1 41893U 16079A   24110.22202024 -.00000141  00000+0  00000+0 0  9995,2 41893   0.0187 219.1076 0001255 164.3111 167.2182  1.00269521 26808,1.00269521,0.0001255,GEO
41896,ARASE (ERG),2016,563.71,350.0,+,31.94,Active,1,MEO,Japan,Japan,Government,Space Science,Epsilon,1 41896U 16080A   24109.11265530  .00000684  00000+0  16283-2 0  9991,2 41896  31.9407 322.2170 7002811 284.8696  12.2117  2.55451333 68024,2.55451333,0.7002811,MEO
41898,TANSAT,2016,98.74,620.0,+,98.47,Active,1,LEO,PRC,China,Government,Earth Observation,Long March,1 41898U 16081A   24110.56004908  .00002119  00000+0  46748-3 0  9990,2 41898  98.4657  80.2376 0019841 222.5561 137.4101 14.58309300389609,14.583093,0.0019841,LEO
41899,YIJIAN,2016,98.75,50.0,+,98.46,Active,1,LEO,PRC,China,Government,Earth Observation,Long March,1 41899U 16081B   24110.44813296  .00002598  00000+0  57208-3 0  9990,2 41899  98.4587  77.5857 0020658 224.5034 135.4505 14.58189877389522,14.58189877,0.0020658,LEO
41900,SPARK 1,2016,98.81,50.0,+,98.46,Active,1,LEO,PRC,China,Government,Earth Observation,Long March,1 41900U 16081C   24110.39286150  .00002553  00000+0  57209-3 0  9992,2 41900  98.4615  74.6811 0023497 232.8312 127.0740 14.57353657389267,14.57353657,0.0023497,LEO
41901,SPARK 2,2016,98.85,50.0,+,98.45,Active,1,LEO,PRC,China,Government,Earth Observation,Long March,1 41901U 16081D   24110.44339478  .00002185  00000+0  49675-3 0  9990,2 41901  98.4526  71.3821 0025245 234.8979 124.9851 14.56811453389179,14.56811453,0.0025245,LEO
41903,JCSAT-110A (JCSAT-15),2016,1436.16,3400.0,+,0.02,Active,1,GSO,French Guiana,Japan,Commercial,Communications,Ariane,1 41903U 16082A   24110.62286499 -.00000352  00000+0  00000+0 0  9997,2 41903   0.0194 220.6718 0000950 148.7636 173.0709  1.00267690 26857,1.0026769,9.5e-05,GEO
41904,STAR ONE D1,2016,1436.11,6433.0,+,0.02,Active,1,GSO,French Guiana,Brazil,Commercial,Communications,Ariane,1 41904U 16082B   24110.51974772 -.00000212  00000+0  00000+0 0  9999,2 41904   0.0189 109.0288 0002422 280.0353 282.1573  1.00271168 26863,1.00271168,0.0002422,GEO
41907,SUPERVIEW-1 01,2016,93.63,560.0,+,97.44,Active,1,LEO,PRC,China,Commercial,Earth Observation,Long March,1 41907U 16083A   24110.57650496  .00052390  00000+0  13980-2 0  9990,2 41907  97.4422 205.3627 0009696  27.5909 332.5849 15.37908698404770,15.37908698,0.0009696,LEO
41908,SUPERVIEW-1 02,2016,93.46,560.0,+,97.28,Active,1,LEO,PRC,China,Commercial,Earth Observation,Long March,1 41908U 16083B   24110.60438580  .00056656  00000+0  13762-2 0  9990,2 41908  97.2752 176.2488 0012946  39.9668 320.2530 15.40728991404880,15.40728991,0.0012946,LEO
41911,TJS-2,2017,1436.13,-1.0,+,0.42,Active,1,GSO,PRC,China,Government,Technology Development,Long March,1 41911U 17001A   24110.54968351 -.00000007  00000+0  00000+0 0  9990,2 41911   0.4235  84.0938 0002162 233.8700 154.5770  1.00269627 26828,1.00269627,0.0002162,GEO
41913,XINGYUN SHIYAN-1,2017,91.35,2.0,+,97.19,Active,1,LEO,PRC,China,Government,Technology Development,Kuaizhou,1 41913U 17002A   24110.58562091  .00511966  00000+0  30722-2 0  9995,2 41913  97.1881 153.2495 0000909 147.9806 212.1515 15.76358320402784,15.7635832,9.09e-05,LEO
41914,JILIN-1 03,2017,94.83,400.0,+,97.22,Active,1,LEO,PRC,China,Commercial,Earth Observation,Kuaizhou,1 41914U 17002B   24110.57091662  .00016481  00000+0  79869-3 0  9994,2 41914  97.2219 130.1086 0011817 105.6472 254.6067 15.18539195401263,15.18539195,0.0011817,LEO
41915,KAIDUN 1,2017,94.3,-1.0,+,97.21,Active,0,LEO,PRC,China,Unknown,Unknown,Unknown,1 41915U 17002C   24110.56977440  .00029739  00000+0  11187-2 0  9999,2 41915  97.2087 140.3819 0008968  89.4943 270.7324 15.27050369401928,15.27050369,0.0008968,LEO
41917,IRIDIUM 106,2017,100.4,860.0,+,86.4,Active,1,LEO,USA,USA,Commercial/Government,Communications,Falcon,1 41917U 17003A   24110.36237978  .00000917  00000+0  32041-3 0  9995,2 41917  86.3969  58.1673 0002031  80.1169 280.0256 14.34215978380149,14.34215978,0.0002031,LEO
41918,IRIDIUM 103,2017,100.4,860.0,+,86.4,Active,1,LEO,USA,USA,Commercial/Government,Communications,Falcon,1 41918U 17003B   24110.34969613  .00000152  00000+0  47177-4 0  9990,2 41918  86.3973  58.0735 0002559  84.5640 275.5848 14.34220630380169,14.3422063,0.0002559,LEO
41919,IRIDIUM 109,2017,100.4,860.0,+,86.4,Active,1,LEO,USA,USA,Commercial/Government,Communications,Falcon,1 41919U 17003C   24110.35604025  .00000623  00000+0  21541-3 0  9994,2 41919  86.3975  58.1174 0002360  89.8234 270.3232 14.34221510380132,14.3422151,0.000236,LEO
41920,IRIDIUM 102,2017,100.4,860.0,+,86.4,Active,1,LEO,USA,USA,Commercial/Government,Communications,Falcon,1 41920U 17003D   24110.39409421  .00000785  00000+0  27326-3 0  9999,2 41920  86.3972  58.0419 0002278  87.4603 272.6854 14.34220407380223,14.34220407,0.0002278,LEO
41921,IRIDIUM 105,2017,100.4,860.0,+,86.4,Active,1,LEO,USA,USA,Commercial/Government,Communications,Falcon,1 41921U 17003E   24110.29503912  .00000779  00000+0  27113-3 0  9996,2 41921  86.4024  26.5153 0002227  84.6044 275.5406 14.34213734382064,14.34213734,0.0002227,LEO
41922,IRIDIUM 104,2017,100.4,860.0,+,86.4,Active,1,LEO,USA,USA,Commercial/Government,Communications,Falcon,1 41922U 17003F   24110.33701594 -.00001126  00000+0 -40918-3 0  9995,2 41922  86.3970  58.0960 0002201  84.1662 275.9784 14.34218089380208,14.34218089,0.0002201,LEO
41923,IRIDIUM 114,2017,100.4,860.0,+,86.4,Active,1,LEO,USA,USA,Commercial/Government,Communications,Falcon,1 41923U 17003G   24110.34335587  .00000143  00000+0  43912-4 0  9996,2 41923  86.3973  58.0798 0002073  80.7871 279.3559 14.34219231380187,14.34219231,0.0002073,LEO
41924,IRIDIUM 108,2017,100.4,860.0,+,86.4,Active,1,LEO,USA,USA,Commercial/Government,Communications,Falcon,1 41924U 17003H   24110.30188005 -.00000233  00000+0 -90181-4 0  9996,2 41924  86.4015  26.4408 0002062  78.4029 281.7398 14.34216365382039,14.34216365,0.0002062,LEO
41925,IRIDIUM 112,2017,100.4,860.0,+,86.4,Active,1,LEO,USA,USA,Commercial/Government,Communications,Falcon,1 41925U 17003J   24110.33066117  .00000658  00000+0  22788-3 0  9995,2 41925  86.3970  57.9635 0002300  91.2401 268.9058 14.34225021380208,14.34225021,0.00023,LEO
41926,IRIDIUM 111,2017,100.4,860.0,+,86.4,Active,1,LEO,USA,USA,Commercial/Government,Communications,Falcon,1 41926U 17003K   24110.31798574  .00000367  00000+0  12400-3 0  9990,2 41926  86.3972  58.0219 0002540  86.0407 274.1079 14.34220805380189,14.34220805,0.000254,LEO
41937,SBIRS GEO-4 (USA 273),2017,1436.09,4500.0,+,1.44,Active,1,GSO,USA,USA,Military,Earth Observation,Atlas,1 41937U 17004A   24110.51722407 -.00000147  00000+0  00000+0 0  9993,2 41937   1.4354 353.7621 0002280  27.7271 276.0035  1.00272213 26692,1.00272213,0.000228,GSO
41942,HISPASAT 36W-1,2017,1436.11,3220.0,+,0.01,Active,1,GSO,French Guiana,Spain,Commercial,Communications,Soyuz,1 41942U 17006A   24109.67019529 -.00000249  00000+0  00000+0 0  9993,2 41942   0.0132  40.6559 0001033 351.3997  20.4777  1.00271197 26307,1.00271197,0.0001033,GEO
41944,TELKOM 3S,2017,1436.07,3550.0,+,0.01,Active,1,GSO,French Guiana,Indonesia,Commercial,Communications,Ariane,1 41944U 17007A   24110.62794176 -.00000364  00000+0  00000+0 0  9999,2 41944   0.0130 249.0472 0002347 133.6173 169.6043  1.00273529 26237,1.00273529,0.0002347,GEO
41945,INTELSAT 32E (IS-32E),2017,1436.05,6000.0,+,0.02,Active,1,GSO,French Guiana,INTELSAT,Commercial,Communications,Ariane,1 41945U 17007B   24109.45406707 -.00000274  00000+0  00000+0 0  9999,2 41945   0.0157 134.0624 0000519 211.1314 342.1340  1.00275054 26308,1.00275054,5.19e-05,GEO
41948,CARTOSAT-2D,2017,94.79,714.0,+,97.43,Active,1,LEO,India,India,Government,Earth Observation,PSLV,1 41948U 17008A   24110.57033184  .00014686  00000+0  70061-3 0  9992,2 41948  97.4314 170.8040 0005983 131.7749 228.3998 15.19163994397843,15.19163994,0.0005983,LEO
42000,DIDO-2,2017,91.79,10.0,+,97.14,Active,1,LEO,India,Israel,Commercial,Technology Development,PSLV,1 42000U 17008BE  24110.12089946  .00159666  00000+0  13706-2 0  9990,2 42000  97.1448 170.0369 0001250 338.1894  21.9314 15.68876493399481,15.68876493,0.000125,LEO
42063,SENTINEL-2B,2017,100.64,1130.0,+,98.56,Active,1,LEO,French Guiana,ESA,Government,Earth Observation,Vega,1 42063U 17013A   24110.60612241  .00000506  00000+0  20969-3 0  9996,2 42063  98.5644 185.6989 0001122  98.5420 261.5890 14.30820613371878,14.30820613,0.0001122,LEO
42070,ECHOSTAR 23,2017,1436.1,5600.0,+,0.0,Active,1,GSO,USA,USA,Commercial,Communications,Falcon,1 42070U 17014A   24110.17480030 -.00000060  00000+0  00000+0 0  9992,2 42070   0.0038 121.8056 0002191 270.3628 128.6212  1.00271821 26013,1.00271821,0.0002191,GEO
42075,WGS F9 (USA 275),2017,1436.13,5990.0,+,0.02,Active,1,GSO,USA,USA,Military,Communications,Delta,1 42075U 17016A   24110.24771594 -.00000099  00000+0  00000+0 0  9997,2 42075   0.0173 212.3173 0000309  71.9169   0.7957  1.00269495 25983,1.00269495,3.09e-05,GEO
42432,SES-10,2017,1436.11,5271.0,+,0.01,Active,1,GSO,USA,SES,Commercial,Communications,Falcon,1 42432U 17017A   24109.52090042 -.00000278  00000+0  00000+0 0  9995,2 42432   0.0076  22.2007 0002576   9.7907 295.7393  1.00271039 25801,1.00271039,0.0002576,GEO
